STARLINK-1559           
1 46077U 20055BC  26068.23360559  .00042685  00000+0  14779-2 0  9995
2 46077  53.0254  76.0659 0004229  33.9710 326.1559 15.29461733309518
STARLINK-31359          
1 58945U 24027Q   26068.85992824  .00001275  00000+0  55195-4 0  9998
2 58945  53.1579 270.3947 0001285  99.4481 260.6665 15.30181732117906
